{"type": "FeatureCollection", "features": [ {"type": "Feature", "properties": {"norad_id": 35475, "name": "COSMOS 2251 DEB", "group": "cosmos-2251-debris", "lat": 41.29287344268858, "lon": 156.52017469365916, "alt_km": 671.3731951386535, "timestamp": "2025-12-24T22:42:22.430375+00:00", "meta": {"OBJECT_NAME": "COSMOS 2251 DEB", "OBJECT_ID": "1993-036ALV", "EPOCH": "2025-12-24T02:54:31.156416", "MEAN_MOTION": 14.69965395, "ECCENTRICITY": 0.00200019, "INCLINATION": 74.0223, "RA_OF_ASC_NODE": 143.5451, "ARG_OF_PERICENTER": 216.1979, "MEAN_ANOMALY": 143.784, "EPHEMERIS_TYPE": 0, "CLASSIFICATION_TYPE": "U", "NORAD_CAT_ID": 35475, "ELEMENT_SET_NO": 999, "REV_AT_EPOCH": 65784, "BSTAR": 0.0020636911, "MEAN_MOTION_DOT": 0.00012396, "MEAN_MOTION_DDOT": 0}, "tle": {"line1": "1 35475U 93036ALV 25358.12119394  .00012396  00000+0  20637-2 0  9998", "line2": "2 35475  74.0223 143.5451 0020001 216.1979 143.7840 14.69965395657849"}}, "geometry": {"type": "Point", "coordinates": [156.52017469365916, 41.29287344268858]}}, {"type": "Feature", "properties": {"norad_id": 35476, "name": "COSMOS 2251 DEB", "group": "cosmos-2251-debris", "lat": 28.03487016794031, "lon": -151.85579517845082, "alt_km": 650.1332442423609, "timestamp": "2025-12-24T22:42:22.430385+00:00", "meta": {"OBJECT_NAME": "COSMOS 2251 DEB", "OBJECT_ID": "1993-036ALW", "EPOCH": "2025-12-23T21:55:12.925920", "MEAN_MOTION": 14.75892475, "ECCENTRICITY": 0.0018358, "INCLINATION": 73.9775, "RA_OF_ASC_NODE": 38.9735, "ARG_OF_PERICENTER": 15.7826, "MEAN_ANOMALY": 49.7231, "EPHEMERIS_TYPE": 0, "CLASSIFICATION_TYPE": "U", "NORAD_CAT_ID": 35476, "ELEMENT_SET_NO": 999, "REV_AT_EPOCH": 88052, "BSTAR": 0.001556, "MEAN_MOTION_DOT": 0.00010701, "MEAN_MOTION_DDOT": 0}, "tle": {"line1": "1 35476U 93036ALW 25357.91334405  .00010701  00000+0  15560-2 0  9994", "line2": "2 35476  73.9775  38.9735 0018358  15.7826  49.7231 14.75892475880525"}}, "geometry": {"type": "Point", "coordinates": [-151.85579517845082, 28.03487016794031]}}, {"type": "Feature", "properties": {"norad_id": 35580, "name": "COSMOS 2251 DEB", "group": "cosmos-2251-debris", "lat": 3.2854596974236734, "lon": -22.985132094707208, "alt_km": 753.4923015875411, "timestamp": "2025-12-24T22:42:22.430395+00:00", "meta": {"OBJECT_NAME": "COSMOS 2251 DEB", "OBJECT_ID": "1993-036ALX", "EPOCH": "2025-12-22T19:33:13.925664", "MEAN_MOTION": 13.83921158, "ECCENTRICITY": 0.0280776, "INCLINATION": 73.9007, "RA_OF_ASC_NODE": 161.5885, "ARG_OF_PERICENTER": 164.8747, "MEAN_ANOMALY": 196.0996, "EPHEMERIS_TYPE": 0, "CLASSIFICATION_TYPE": "U", "NORAD_CAT_ID": 35580, "ELEMENT_SET_NO": 999, "REV_AT_EPOCH": 62396, "BSTAR": 0.0019852622, "MEAN_MOTION_DOT": 2.966e-05, "MEAN_MOTION_DDOT": 0}, "tle": {"line1": "1 35580U 93036ALX 25356.81474451  .00002966  00000+0  19853-2 0  9997", "line2": "2 35580  73.9007 161.5885 0280776 164.8747 196.0996 13.83921158623967"}}, "geometry": {"type": "Point", "coordinates": [-22.985132094707208, 3.2854596974236734]}}, {"type": "Feature", "properties": {"norad_id": 35583, "name": "COSMOS 2251 DEB", "group": "cosmos-2251-debris", "lat": 52.918571456157245, "lon": -145.32484236948474, "alt_km": 1311.2378752695404, "timestamp": "2025-12-24T22:42:22.430405+00:00", "meta": {"OBJECT_NAME": "COSMOS 2251 DEB", "OBJECT_ID": "1993-036AMA", "EPOCH": "2025-12-23T19:50:15.801792", "MEAN_MOTION": 13.55354425, "ECCENTRICITY": 0.03849784, "INCLINATION": 73.9157, "RA_OF_ASC_NODE": 194.0477, "ARG_OF_PERICENTER": 216.3569, "MEAN_ANOMALY": 141.0826, "EPHEMERIS_TYPE": 0, "CLASSIFICATION_TYPE": "U", "NORAD_CAT_ID": 35583, "ELEMENT_SET_NO": 999, "REV_AT_EPOCH": 82562, "BSTAR": 0.00078625408, "MEAN_MOTION_DOT": 8.53e-06, "MEAN_MOTION_DDOT": 0}, "tle": {"line1": "1 35583U 93036AMA 25357.82657178  .00000853  00000+0  78625-3 0  9997", "line2": "2 35583  73.9157 194.0477 0384978 216.3569 141.0826 13.55354425825623"}}, "geometry": {"type": "Point", "coordinates": [-145.32484236948474, 52.918571456157245]}}, {"type": "Feature", "properties": {"norad_id": 35585, "name": "COSMOS 2251 DEB", "group": "cosmos-2251-debris", "lat": 15.719272422870448, "lon": 143.39284844129756, "alt_km": 912.7865173219434, "timestamp": "2025-12-24T22:42:22.430416+00:00", "meta": {"OBJECT_NAME": "COSMOS 2251 DEB", "OBJECT_ID": "1993-036AMC", "EPOCH": "2025-12-21T09:07:18.442848", "MEAN_MOTION": 13.75269672, "ECCENTRICITY": 0.03103986, "INCLINATION": 73.9717, "RA_OF_ASC_NODE": 333.9847, "ARG_OF_PERICENTER": 244.5384, "MEAN_ANOMALY": 273.7703, "EPHEMERIS_TYPE": 0, "CLASSIFICATION_TYPE": "U", "NORAD_CAT_ID": 35585, "ELEMENT_SET_NO": 999, "REV_AT_EPOCH": 64182, "BSTAR": 0.00073727274, "MEAN_MOTION_DOT": 9.8e-06, "MEAN_MOTION_DDOT": 0}, "tle": {"line1": "1 35585U 93036AMC 25355.38007457  .00000980  00000+0  73727-3 0  9996", "line2": "2 35585  73.9717 333.9847 0310398 244.5384 273.7703 13.75269672641821"}}, "geometry": {"type": "Point", "coordinates": [143.39284844129756, 15.719272422870448]}}, {"type": "Feature", "properties": {"norad_id": 35586, "name": "COSMOS 2251 DEB", "group": "cosmos-2251-debris", "lat": 50.42022829766606, "lon": -56.79560129307566, "alt_km": 1111.8830276143326, "timestamp": "2025-12-24T22:42:22.430426+00:00", "meta": {"OBJECT_NAME": "COSMOS 2251 DEB", "OBJECT_ID": "1993-036AMD", "EPOCH": "2025-12-23T04:09:08.280864", "MEAN_MOTION": 13.52091848, "ECCENTRICITY": 0.04042541, "INCLINATION": 74.0191, "RA_OF_ASC_NODE": 285.7624, "ARG_OF_PERICENTER": 158.8543, "MEAN_ANOMALY": 271.7414, "EPHEMERIS_TYPE": 0, "CLASSIFICATION_TYPE": "U", "NORAD_CAT_ID": 35586, "ELEMENT_SET_NO": 999, "REV_AT_EPOCH": 60523, "BSTAR": 0.000355474, "MEAN_MOTION_DOT": 3.71e-06, "MEAN_MOTION_DDOT": 0}, "tle": {"line1": "1 35586U 93036AMD 25357.17301251  .00000371  00000+0  35547-3 0  9997", "line2": "2 35586  74.0191 285.7624 0404254 158.8543 271.7414 13.52091848605231"}}, "geometry": {"type": "Point", "coordinates": [-56.79560129307566, 50.42022829766606]}}, {"type": "Feature", "properties": {"norad_id": 35587, "name": "COSMOS 2251 DEB", "group": "cosmos-2251-debris", "lat": 47.81190356577653, "lon": -163.79565026238, "alt_km": 650.7717014602722, "timestamp": "2025-12-24T22:42:22.430437+00:00", "meta": {"OBJECT_NAME": "COSMOS 2251 DEB", "OBJECT_ID": "1993-036AME", "EPOCH": "2025-12-21T20:41:18.597984", "MEAN_MOTION": 14.71550847, "ECCENTRICITY": 0.01023219, "INCLINATION": 74.0051, "RA_OF_ASC_NODE": 40.6582, "ARG_OF_PERICENTER": 226.293, "MEAN_ANOMALY": 132.9734, "EPHEMERIS_TYPE": 0, "CLASSIFICATION_TYPE": "U", "NORAD_CAT_ID": 35587, "ELEMENT_SET_NO": 999, "REV_AT_EPOCH": 66480, "BSTAR": 0.00023978572, "MEAN_MOTION_DOT": 1.58e-05, "MEAN_MOTION_DDOT": 0}, "tle": {"line1": "1 35587U 93036AME 25355.86202081  .00001580  00000+0  23979-3 0  9992", "line2": "2 35587  74.0051  40.6582 0102321 226.2930 132.9734 14.71550847664800"}}, "geometry": {"type": "Point", "coordinates": [-163.79565026238, 47.81190356577653]}}, {"type": "Feature", "properties": {"norad_id": 35593, "name": "COSMOS 2251 DEB", "group": "cosmos-2251-debris", "lat": 44.642442519253954, "lon": -77.15467742899268, "alt_km": 856.8476099830605, "timestamp": "2025-12-24T22:42:22.430447+00:00", "meta": {"OBJECT_NAME": "COSMOS 2251 DEB", "OBJECT_ID": "1993-036AML", "EPOCH": "2025-12-24T00:35:28.875264", "MEAN_MOTION": 14.25635831, "ECCENTRICITY": 0.01050685, "INCLINATION": 74.0857, "RA_OF_ASC_NODE": 268.1373, "ARG_OF_PERICENTER": 272.0988, "MEAN_ANOMALY": 86.8131, "EPHEMERIS_TYPE": 0, "CLASSIFICATION_TYPE": "U", "NORAD_CAT_ID": 35593, "ELEMENT_SET_NO": 999, "REV_AT_EPOCH": 85226, "BSTAR": 0.00070261528, "MEAN_MOTION_DOT": 1.738e-05, "MEAN_MOTION_DDOT": 0}, "tle": {"line1": "1 35593U 93036AML 25358.02463976  .00001738  00000+0  70262-3 0  9994", "line2": "2 35593  74.0857 268.1373 0105068 272.0988  86.8131 14.25635831852262"}}, "geometry": {"type": "Point", "coordinates": [-77.15467742899268, 44.642442519253954]}}, {"type": "Feature", "properties": {"norad_id": 35594, "name": "COSMOS 2251 DEB", "group": "cosmos-2251-debris", "lat": -31.70769896148005, "lon": -87.8084684118996, "alt_km": 589.8551289867637, "timestamp": "2025-12-24T22:42:22.430458+00:00", "meta": {"OBJECT_NAME": "COSMOS 2251 DEB", "OBJECT_ID": "1993-036AMM", "EPOCH": "2025-12-21T13:05:05.165088", "MEAN_MOTION": 14.8817141, "ECCENTRICITY": 0.0029279, "INCLINATION": 73.8068, "RA_OF_ASC_NODE": 88.7269, "ARG_OF_PERICENTER": 201.0189, "MEAN_ANOMALY": 158.9789, "EPHEMERIS_TYPE": 0, "CLASSIFICATION_TYPE": "U", "NORAD_CAT_ID": 35594, "ELEMENT_SET_NO": 999, "REV_AT_EPOCH": 88316, "BSTAR": 0.0013268, "MEAN_MOTION_DOT": 0.00012311, "MEAN_MOTION_DDOT": 0}, "tle": {"line1": "1 35594U 93036AMM 25355.54519867  .00012311  00000+0  13268-2 0  9991", "line2": "2 35594  73.8068  88.7269 0029279 201.0189 158.9789 14.88171410883168"}}, "geometry": {"type": "Point", "coordinates": [-87.8084684118996, -31.70769896148005]}}, {"type": "Feature", "properties": {"norad_id": 35602, "name": "COSMOS 2251 DEB", "group": "cosmos-2251-debris", "lat": -52.12057551209368, "lon": -2.3904430128172023, "alt_km": 407.73051133483204, "timestamp": "2025-12-24T22:42:22.430468+00:00", "meta": {"OBJECT_NAME": "COSMOS 2251 DEB", "OBJECT_ID": "1993-036AMV", "EPOCH": "2025-12-21T22:26:51.012096", "MEAN_MOTION": 15.35414257, "ECCENTRICITY": 0.00887347, "INCLINATION": 73.9929, "RA_OF_ASC_NODE": 162.4295, "ARG_OF_PERICENTER": 226.1697, "MEAN_ANOMALY": 293.1785, "EPHEMERIS_TYPE": 0, "CLASSIFICATION_TYPE": "U", "NORAD_CAT_ID": 35602, "ELEMENT_SET_NO": 999, "REV_AT_EPOCH": 90232, "BSTAR": 0.00057034705, "MEAN_MOTION_DOT": 0.00022374, "MEAN_MOTION_DDOT": 0}, "tle": {"line1": "1 35602U 93036AMV 25355.93531264  .00022374  00000+0  57035-3 0  9990", "line2": "2 35602  73.9929 162.4295 0088734 226.1697 293.1785 15.35414257902327"}}, "geometry": {"type": "Point", "coordinates": [-2.3904430128172023, -52.12057551209368]}}]}